{
  "type": "FeatureCollection",
  "features": [
    {
      "type": "Feature",
      "properties": {
        "norad_id": 67004,
        "name": "STARLINK-35913",
        "group": "last-30-days",
        "lat": -64.74577115031937,
        "lon": 153.50061169395727,
        "alt_km": 358.21160567220977,
        "timestamp": "2025-12-26T21:25:51.736190+00:00",
        "meta_object_name": "STARLINK-35913",
        "meta_object_id": "2025-293B",
        "meta_epoch": "2025-12-26T14:00:04.000032",
        "meta_mean_motion": 15.72861494,
        "meta_eccentricity": 0.00036577,
        "meta_inclination": 69.9962,
        "meta_ra_of_asc_node": 283.8127,
        "meta_arg_of_pericenter": 263.4092,
        "meta_mean_anomaly": 39.0511,
        "meta_ephemeris_type": 0,
        "meta_classification_type": "U",
        "meta_norad_cat_id": 67004,
        "meta_element_set_no": 999,
        "meta_rev_at_epoch": 239,
        "meta_bstar": -0.013422212,
        "meta_mean_motion_dot": -0.01623788,
        "meta_mean_motion_ddot": 0,
        "tle_line1": "1 67004U 25293B   25360.58337963 -.01623788  00000+0 -13422-1 0  9997",
        "tle_line2": "2 67004  69.9962 283.8127 0003657 263.4092  39.0511 15.72861494  2398"
      },
      "geometry": {
        "type": "Point",
        "coordinates": [
          153.50061169395727,
          -64.74577115031937
        ]
      }
    },
    {
      "type": "Feature",
      "properties": {
        "norad_id": 67005,
        "name": "STARLINK-36148",
        "group": "last-30-days",
        "lat": -65.98880649070529,
        "lon": 157.80357403491104,
        "alt_km": 358.16669139293117,
        "timestamp": "2025-12-26T21:25:51.736200+00:00",
        "meta_object_name": "STARLINK-36148",
        "meta_object_id": "2025-293C",
        "meta_epoch": "2025-12-26T14:00:04.000032",
        "meta_mean_motion": 15.72848334,
        "meta_eccentricity": 0.00038027,
        "meta_inclination": 69.9968,
        "meta_ra_of_asc_node": 283.8116,
        "meta_arg_of_pericenter": 264.6325,
        "meta_mean_anomaly": 40.0301,
        "meta_ephemeris_type": 0,
        "meta_classification_type": "U",
        "meta_norad_cat_id": 67005,
        "meta_element_set_no": 999,
        "meta_rev_at_epoch": 239,
        "meta_bstar": -0.013459576,
        "meta_mean_motion_dot": -0.01627115,
        "meta_mean_motion_ddot": 0,
        "tle_line1": "1 67005U 25293C   25360.58337963 -.01627115  00000+0 -13460-1 0  9998",
        "tle_line2": "2 67005  69.9968 283.8116 0003802 264.6325  40.0301 15.72848334  2394"
      },
      "geometry": {
        "type": "Point",
        "coordinates": [
          157.80357403491104,
          -65.98880649070529
        ]
      }
    },
    {
      "type": "Feature",
      "properties": {
        "norad_id": 67006,
        "name": "STARLINK-36156",
        "group": "last-30-days",
        "lat": -68.22553990808139,
        "lon": 168.71406650388283,
        "alt_km": 358.28366755779007,
        "timestamp": "2025-12-26T21:25:51.736210+00:00",
        "meta_object_name": "STARLINK-36156",
        "meta_object_id": "2025-293D",
        "meta_epoch": "2025-12-26T14:00:04.000032",
        "meta_mean_motion": 15.72796627,
        "meta_eccentricity": 0.0003835,
        "meta_inclination": 69.9968,
        "meta_ra_of_asc_node": 283.8051,
        "meta_arg_of_pericenter": 265.4956,
        "meta_mean_anomaly": 44.0206,
        "meta_ephemeris_type": 0,
        "meta_classification_type": "U",
        "meta_norad_cat_id": 67006,
        "meta_element_set_no": 999,
        "meta_rev_at_epoch": 239,
        "meta_bstar": -0.013429575,
        "meta_mean_motion_dot": -0.01620712,
        "meta_mean_motion_ddot": 0,
        "tle_line1": "1 67006U 25293D   25360.58337963 -.01620712  00000+0 -13430-1 0  9992",
        "tle_line2": "2 67006  69.9968 283.8051 0003835 265.4956  44.0206 15.72796627  2393"
      },
      "geometry": {
        "type": "Point",
        "coordinates": [
          168.71406650388283,
          -68.22553990808139
        ]
      }
    },
    {
      "type": "Feature",
      "properties": {
        "norad_id": 67007,
        "name": "STARLINK-36123",
        "group": "last-30-days",
        "lat": -67.26242010169395,
        "lon": 163.31227756326493,
        "alt_km": 358.25377869563727,
        "timestamp": "2025-12-26T21:25:51.736222+00:00",
        "meta_object_name": "STARLINK-36123",
        "meta_object_id": "2025-293E",
        "meta_epoch": "2025-12-26T14:00:04.000032",
        "meta_mean_motion": 15.72809071,
        "meta_eccentricity": 0.00037929,
        "meta_inclination": 69.9963,
        "meta_ra_of_asc_node": 283.8072,
        "meta_arg_of_pericenter": 263.5873,
        "meta_mean_anomaly": 43.6462,
        "meta_ephemeris_type": 0,
        "meta_classification_type": "U",
        "meta_norad_cat_id": 67007,
        "meta_element_set_no": 999,
        "meta_rev_at_epoch": 239,
        "meta_bstar": -0.013359793,
        "meta_mean_motion_dot": -0.01613943,
        "meta_mean_motion_ddot": 0,
        "tle_line1": "1 67007U 25293E   25360.58337963 -.01613943  00000+0 -13360-1 0  9993",
        "tle_line2": "2 67007  69.9963 283.8072 0003792 263.5873  43.6462 15.72809071  2398"
      },
      "geometry": {
        "type": "Point",
        "coordinates": [
          163.31227756326493,
          -67.26242010169395
        ]
      }
    },
    {
      "type": "Feature",
      "properties": {
        "norad_id": 67008,
        "name": "STARLINK-36163",
        "group": "last-30-days",
        "lat": -69.11439349354605,
        "lon": 175.6203117733599,
        "alt_km": 358.44800794069124,
        "timestamp": "2025-12-26T21:25:51.736233+00:00",
        "meta_object_name": "STARLINK-36163",
        "meta_object_id": "2025-293F",
        "meta_epoch": "2025-12-26T14:00:04.000032",
        "meta_mean_motion": 15.72756947,
        "meta_eccentricity": 0.00037687,
        "meta_inclination": 69.997,
        "meta_ra_of_asc_node": 283.8023,
        "meta_arg_of_pericenter": 264.9482,
        "meta_mean_anomaly": 47.2801,
        "meta_ephemeris_type": 0,
        "meta_classification_type": "U",
        "meta_norad_cat_id": 67008,
        "meta_element_set_no": 999,
        "meta_rev_at_epoch": 239,
        "meta_bstar": -0.013460245,
        "meta_mean_motion_dot": -0.01621489,
        "meta_mean_motion_ddot": 0,
        "tle_line1": "1 67008U 25293F   25360.58337963 -.01621489  00000+0 -13460-1 0  9999",
        "tle_line2": "2 67008  69.9970 283.8023 0003768 264.9482  47.2801 15.72756947  2397"
      },
      "geometry": {
        "type": "Point",
        "coordinates": [
          175.6203117733599,
          -69.11439349354605
        ]
      }
    },
    {
      "type": "Feature",
      "properties": {
        "norad_id": 67009,
        "name": "STARLINK-36118",
        "group": "last-30-days",
        "lat": -69.65263154817762,
        "lon": -177.85563339215878,
        "alt_km": 358.5845317529147,
        "timestamp": "2025-12-26T21:25:51.736243+00:00",
        "meta_object_name": "STARLINK-36118",
        "meta_object_id": "2025-293G",
        "meta_epoch": "2025-12-26T14:00:04.000032",
        "meta_mean_motion": 15.7273206,
        "meta_eccentricity": 0.00036722,
        "meta_inclination": 69.9965,
        "meta_ra_of_asc_node": 283.7989,
        "meta_arg_of_pericenter": 264.3106,
        "meta_mean_anomaly": 50.3065,
        "meta_ephemeris_type": 0,
        "meta_classification_type": "U",
        "meta_norad_cat_id": 67009,
        "meta_element_set_no": 999,
        "meta_rev_at_epoch": 233,
        "meta_bstar": -0.013441681,
        "meta_mean_motion_dot": -0.01617879,
        "meta_mean_motion_ddot": 0,
        "tle_line1": "1 67009U 25293G   25360.58337963 -.01617879  00000+0 -13442-1 0  9998",
        "tle_line2": "2 67009  69.9965 283.7989 0003672 264.3106  50.3065 15.72732060  2334"
      },
      "geometry": {
        "type": "Point",
        "coordinates": [
          -177.85563339215878,
          -69.65263154817762
        ]
      }
    },
    {
      "type": "Feature",
      "properties": {
        "norad_id": 67010,
        "name": "STARLINK-36189",
        "group": "last-30-days",
        "lat": -69.97185907527457,
        "lon": -165.0720447784716,
        "alt_km": 358.7159288449993,
        "timestamp": "2025-12-26T21:25:51.736253+00:00",
        "meta_object_name": "STARLINK-36189",
        "meta_object_id": "2025-293H",
        "meta_epoch": "2025-12-26T14:00:04.000032",
        "meta_mean_motion": 15.72708924,
        "meta_eccentricity": 0.00036424,
        "meta_inclination": 69.9966,
        "meta_ra_of_asc_node": 283.7938,
        "meta_arg_of_pericenter": 263.951,
        "meta_mean_anomaly": 55.12,
        "meta_ephemeris_type": 0,
        "meta_classification_type": "U",
        "meta_norad_cat_id": 67010,
        "meta_element_set_no": 999,
        "meta_rev_at_epoch": 239,
        "meta_bstar": -0.013557182,
        "meta_mean_motion_dot": -0.01628779,
        "meta_mean_motion_ddot": 0,
        "tle_line1": "1 67010U 25293H   25360.58337963 -.01628779  00000+0 -13557-1 0  9998",
        "tle_line2": "2 67010  69.9966 283.7938 0003642 263.9510  55.1200 15.72708924  2394"
      },
      "geometry": {
        "type": "Point",
        "coordinates": [
          -165.0720447784716,
          -69.97185907527457
        ]
      }
    }
  ]
}